H1 CPF  1  DGF 2022 11 02 08  8061 larets     NONE      
H2   304206 5557    27944 2022 11 01 00 00 00 2022 11 08 00 00 00    30 1 1  0 0 0
H5  0.0650
H9
10 0 59884  36000.000000  0      -2884941.797      -4128832.054       4953918.973
10 0 59884  36030.000000  0      -2840486.689      -3967634.792       5108442.192
10 0 59884  36060.000000  0      -2792447.731      -3802630.684       5257765.367
10 0 59884  36090.000000  0      -2740857.384      -3634002.292       5401736.817
10 0 59884  36120.000000  0      -2685752.489      -3461935.660       5540210.309
10 0 59884  36150.000000  0      -2627174.249      -3286620.103       5673045.204
10 0 59884  36180.000000  0      -2565168.193      -3108248.001       5800106.596
10 0 59884  36210.000000  0      -2499784.148      -2927014.581       5921265.443
10 0 59884  36240.000000  0      -2431076.193      -2743117.709       6036398.694
10 0 59884  36270.000000  0      -2359102.620      -2556757.666       6145389.409
10 0 59884  36300.000000  0      -2283925.881      -2368136.937       6248126.877
10 0 59884  36330.000000  0      -2205612.537      -2177459.984       6344506.719
10 0 59884  36360.000000  0      -2124233.195      -1984933.027       6434430.998
10 0 59884  36390.000000  0      -2039862.447      -1790763.817       6517808.312
10 0 59884  36420.000000  0      -1952578.798      -1595161.409       6594553.883
10 0 59884  36450.000000  0      -1862464.591      -1398335.936       6664589.634
10 0 59884  36480.000000  0      -1769605.932      -1200498.383       6727844.266
10 0 59884  36510.000000  0      -1674092.607      -1001860.360       6784253.321
10 0 59884  36540.000000  0      -1576017.994       -802633.881       6833759.240
10 0 59884  36570.000000  0      -1475478.980       -603031.141       6876311.421
10 0 59884  36600.000000  0      -1372575.862       -403264.295       6911866.266
10 0 59884  36630.000000  0      -1267412.251       -203545.233       6940387.233
10 0 59884  36660.000000  0      -1160094.970         -4085.362       6961844.870
10 0 59884  36690.000000  0      -1050733.946        194904.625       6976216.849
10 0 59884  36720.000000  0       -939442.095        393214.965       6983487.986
10 0 59884  36750.000000  0       -826335.213        590637.046       6983650.261
10 0 59884  36780.000000  0       -711531.852        786963.628       6976702.829
10 0 59884  36810.000000  0       -595153.196        981989.055       6962652.018
10 0 59884  36840.000000  0       -477322.941       1175509.475       6941511.334
10 0 59884  36870.000000  0       -358167.157       1367323.046       6913301.444
10 0 59884  36900.000000  0       -237814.164       1557230.153       6878050.168
10 0 59884  36930.000000  0       -116394.384       1745033.616       6835792.446
10 0 59884  36960.000000  0          5959.791       1930538.890       6786570.315
10 0 59884  36990.000000  0        129114.146       2113554.271       6730432.862
10 0 59884  37020.000000  0        252932.785       2293891.092       6667436.188
10 0 59884  37050.000000  0        377278.280       2471363.913       6597643.356
10 0 59884  37080.000000  0        502011.824       2645790.723       6521124.336
10 0 59884  37110.000000  0        626993.381       2816993.124       6437955.943
10 0 59884  37140.000000  0        752081.842       2984796.517       6348221.767
10 0 59884  37170.000000  0        877135.186       3149030.286       6252012.093
10 0 59884  37200.000000  0       1002010.637       3309527.975       6149423.820
10 0 59884  37230.000000  0       1126564.827       3466127.463       6040560.370
10 0 59884  37260.000000  0       1250653.959       3618671.127       5925531.591
10 0 59884  37290.000000  0       1374133.970       3767006.014       5804453.653
10 0 59884  37320.000000  0       1496860.704       3910983.996       5677448.943
10 0 59884  37350.000000  0       1618690.074       4050461.926       5544645.941
10 0 59884  37380.000000  0       1739478.237       4185301.789       5406179.108
10 0 59884  37410.000000  0       1859081.762       4315370.849       5262188.745
10 0 59884  37440.000000  0       1977357.806       4440541.784       5112820.861
10 0 59884  37470.000000  0       2094164.279       4560692.821       4958227.026
10 0 59884  37500.000000  0       2209360.021       4675707.855       4798564.223
10 0 59884  37530.000000  0       2322804.966       4785476.574       4633994.692
10 0 59884  37560.000000  0       2434360.317       4889894.566       4464685.774
10 0 59884  37590.000000  0       2543888.718       4988863.430       4290809.744
10 0 59884  37620.000000  0       2651254.418       5082290.878       4112543.635
10 0 59884  37650.000000  0       2756323.445       5170090.823       3930069.074
10 0 59884  37680.000000  0       2858963.772       5252183.478       3743572.095
10 0 59884  37710.000000  0       2959045.490       5328495.441       3553242.954
10 0 59884  37740.000000  0       3056440.978       5398959.770       3359275.930
10 0 59884  37770.000000  0       3151025.063       5463516.056       3161869.118
10 0 59884  37800.000000  0       3242675.186       5522110.473       2961224.225
10 0 59884  37830.000000  0       3331271.562       5574695.829       2757546.350
10 0 59884  37860.000000  0       3416697.332       5621231.604       2551043.777
10 0 59884  37890.000000  0       3498838.715       5661683.976       2341927.755
10 0 59884  37920.000000  0       3577585.160       5696025.854       2130412.283
10 0 59884  37950.000000  0       3652829.489       5724236.897       1916713.887
10 0 59884  37980.000000  0       3724468.040       5746303.524       1701051.391
10 0 59884  38010.000000  0       3792400.810       5762218.924       1483645.688
10 0 59884  38040.000000  0       3856531.588       5771983.050       1264719.504
10 0 59884  38070.000000  0       3916768.091       5775602.603       1044497.159
10 0 59884  38100.000000  0       3973022.090       5773091.013        823204.328
10 0 59884  38130.000000  0       4025209.531       5764468.400        601067.796
10 0 59884  38160.000000  0       4073250.653       5749761.537        378315.228
10 0 59884  38190.000000  0       4117070.103       5729003.802        155174.916
10 0 59884  38220.000000  0       4156597.038       5702235.126        -68124.454
10 0 59884  38250.000000  0       4191765.228       5669501.931       -291354.046
10 0 59884  38280.000000  0       4222513.157       5630857.061       -514285.122
10 0 59884  38310.000000  0       4248784.109       5586359.704       -736689.278
10 0 59884  38340.000000  0       4270526.259       5536075.310       -958338.694
10 0 59884  38370.000000  0       4287692.752       5480075.495      -1179006.370
10 0 59884  38400.000000  0       4300241.771       5418437.943      -1398466.373
10 0 59884  38430.000000  0       4308136.610       5351246.298      -1616494.073
10 0 59884  38460.000000  0       4311345.728       5278590.053      -1832866.380
10 0 59884  38490.000000  0       4309842.811       5200564.427      -2047361.980
10 0 59884  38520.000000  0       4303606.814       5117270.242      -2259761.570
10 0 59884  38550.000000  0       4292622.007       5028813.789      -2469848.087
10 0 59884  38580.000000  0       4276878.005       4935306.687      -2677406.937
10 0 59884  38610.000000  0       4256369.798       4836865.740      -2882226.222
10 0 59884  38640.000000  0       4231097.772       4733612.781      -3084096.955
10 0 59884  38670.000000  0       4201067.725       4625674.520      -3282813.281
10 0 59884  38700.000000  0       4166290.869       4513182.379      -3478172.683
10 0 59884  38730.000000  0       4126783.842       4396272.329      -3669976.193
10 0 59884  38760.000000  0       4082568.696       4275084.716      -3858028.590
10 0 59884  38790.000000  0       4033672.893       4149764.095      -4042138.603
10 0 59884  38820.000000  0       3980129.287       4020459.045      -4222119.101
10 0 59884  38850.000000  0       3921976.102       3887321.990      -4397787.288
10 0 59884  38880.000000  0       3859256.899       3750509.012      -4568964.883
10 0 59884  38910.000000  0       3792020.545       3610179.660      -4735478.299
10 0 59884  38940.000000  0       3720321.168       3466496.758      -4897158.815
10 0 59884  38970.000000  0       3644218.107       3319626.215      -5053842.742
10 0 59884  39000.000000  0       3563775.859       3169736.820      -5205371.584
10 0 59884  39030.000000  0       3479064.018       3017000.050      -5351592.192
10 0 59884  39060.000000  0       3390157.212       2861589.865      -5492356.911
10 0 59884  39090.000000  0       3297135.025       2703682.504      -5627523.720
10 0 59884  39120.000000  0       3200081.931       2543456.289      -5756956.370
10 0 59884  39150.000000  0       3099087.206       2381091.411      -5880524.516
10 0 59884  39180.000000  0       2994244.841       2216769.731      -5998103.837
10 0 59884  39210.000000  0       2885653.446       2050674.566      -6109576.153
10 0 59884  39240.000000  0       2773416.155       1882990.488      -6214829.531
10 0 59884  39270.000000  0       2657640.521       1713903.116      -6313758.390
10 0 59884  39300.000000  0       2538438.411       1543598.911      -6406263.594
10 0 59884  39330.000000  0       2415925.895       1372264.969      -6492252.545
10 0 59884  39360.000000  0       2290223.126       1200088.817      -6571639.262
10 0 59884  39390.000000  0       2161454.226       1027258.211      -6644344.459
10 0 59884  39420.000000  0       2029747.161        853960.929      -6710295.615
10 0 59884  39450.000000  0       1895233.612        680384.577      -6769427.041
10 0 59884  39480.000000  0       1758048.844        506716.381      -6821679.942
10 0 59884  39510.000000  0       1618331.570        333142.991      -6867002.467
10 0 59884  39540.000000  0       1476223.801        159850.281      -6905349.763
10 0 59884  39570.000000  0       1331870.707        -12976.853      -6936684.002
99
